[{"OBJECT_NAME":"STARLINK-33556","OBJECT_ID":"2024-220X","EPOCH":"2026-01-02T07:45:24.440256","MEAN_MOTION":15.27581392,"ECCENTRICITY":7.848e-5,"INCLINATION":42.9995,"RA_OF_ASC_NODE":220.1476,"ARG_OF_PERICENTER":30.7434,"MEAN_ANOMALY":329.3464,"EPHEMERIS_TYPE":0,"CLASSIFICATION_TYPE":"U","NORAD_CAT_ID":62109,"ELEMENT_SET_NO":999,"REV_AT_EPOCH":6306,"BSTAR":0.001823508,"MEAN_MOTION_DOT":0.00050261,"MEAN_MOTION_DDOT":0},{"OBJECT_NAME":"STARLINK-33551","OBJECT_ID":"2024-220Y","EPOCH":"2026-01-02T20:44:33.465408","MEAN_MOTION":15.27580153,"ECCENTRICITY":0.0001778,"INCLINATION":43.0003,"RA_OF_ASC_NODE":217.3243,"ARG_OF_PERICENTER":274.66,"MEAN_ANOMALY":85.4048,"EPHEMERIS_TYPE":0,"CLASSIFICATION_TYPE":"U","NORAD_CAT_ID":62110,"ELEMENT_SET_NO":999,"REV_AT_EPOCH":6312,"BSTAR":0.0015251,"MEAN_MOTION_DOT":0.00041945,"MEAN_MOTION_DDOT":0},{"OBJECT_NAME":"STARLINK-32311","OBJECT_ID":"2024-222A","EPOCH":"2026-01-02T15:49:13.144224","MEAN_MOTION":15.27603913,"ECCENTRICITY":0.00012663,"INCLINATION":42.9984,"RA_OF_ASC_NODE":134.1058,"ARG_OF_PERICENTER":272.7008,"MEAN_ANOMALY":87.3698,"EPHEMERIS_TYPE":0,"CLASSIFICATION_TYPE":"U","NORAD_CAT_ID":62114,"ELEMENT_SET_NO":999,"REV_AT_EPOCH":6298,"BSTAR":0.0013897062,"MEAN_MOTION_DOT":0.00038206,"MEAN_MOTION_DDOT":0},{"OBJECT_NAME":"STARLINK-32470","OBJECT_ID":"2024-222B","EPOCH":"2026-01-02T09:42:58.601952","MEAN_MOTION":15.27612761,"ECCENTRICITY":0.00012747,"INCLINATION":42.9957,"RA_OF_ASC_NODE":150.3417,"ARG_OF_PERICENTER":159.6177,"MEAN_ANOMALY":200.4726,"EPHEMERIS_TYPE":0,"CLASSIFICATION_TYPE":"U","NORAD_CAT_ID":62115,"ELEMENT_SET_NO":999,"REV_AT_EPOCH":6276,"BSTAR":0.0016430867,"MEAN_MOTION_DOT":0.00045276,"MEAN_MOTION_DDOT":0},{"OBJECT_NAME":"STARLINK-32502","OBJECT_ID":"2024-222C","EPOCH":"2026-01-02T10:14:25.616832","MEAN_MOTION":15.27606071,"ECCENTRICITY":7.29e-5,"INCLINATION":42.9935,"RA_OF_ASC_NODE":150.5052,"ARG_OF_PERICENTER":211.2727,"MEAN_ANOMALY":148.8081,"EPHEMERIS_TYPE":0,"CLASSIFICATION_TYPE":"U","NORAD_CAT_ID":62116,"ELEMENT_SET_NO":999,"REV_AT_EPOCH":6267,"BSTAR":0.0019791265,"MEAN_MOTION_DOT":0.00054647,"MEAN_MOTION_DDOT":0},{"OBJECT_NAME":"STARLINK-32521","OBJECT_ID":"2024-222D","EPOCH":"2026-01-02T09:54:45.177696","MEAN_MOTION":15.27617065,"ECCENTRICITY":0.00014169,"INCLINATION":42.9992,"RA_OF_ASC_NODE":146.832,"ARG_OF_PERICENTER":273.8894,"MEAN_ANOMALY":86.1796,"EPHEMERIS_TYPE":0,"CLASSIFICATION_TYPE":"U","NORAD_CAT_ID":62117,"ELEMENT_SET_NO":999,"REV_AT_EPOCH":6265,"BSTAR":0.0019635079,"MEAN_MOTION_DOT":0.00054229,"MEAN_MOTION_DDOT":0},{"OBJECT_NAME":"STARLINK-32549","OBJECT_ID":"2024-222E","EPOCH":"2026-01-02T10:56:46.051584","MEAN_MOTION":15.27616047,"ECCENTRICITY":0.00029097,"INCLINATION":42.9897,"RA_OF_ASC_NODE":149.8609,"ARG_OF_PERICENTER":152.7093,"MEAN_ANOMALY":207.3912,"EPHEMERIS_TYPE":0,"CLASSIFICATION_TYPE":"U","NORAD_CAT_ID":62118,"ELEMENT_SET_NO":999,"REV_AT_EPOCH":6268,"BSTAR":0.0016233417,"MEAN_MOTION_DOT":0.00044733,"MEAN_MOTION_DDOT":0},{"OBJECT_NAME":"STARLINK-32535","OBJECT_ID":"2024-222F","EPOCH":"2026-01-02T10:26:13.565472","MEAN_MOTION":15.27597611,"ECCENTRICITY":0.00015278,"INCLINATION":43.0005,"RA_OF_ASC_NODE":147.1139,"ARG_OF_PERICENTER":249.4212,"MEAN_ANOMALY":110.6476,"EPHEMERIS_TYPE":0,"CLASSIFICATION_TYPE":"U","NORAD_CAT_ID":62119,"ELEMENT_SET_NO":999,"REV_AT_EPOCH":6266,"BSTAR":0.0013134406,"MEAN_MOTION_DOT":0.00036078,"MEAN_MOTION_DDOT":0},{"OBJECT_NAME":"STARLINK-32548","OBJECT_ID":"2024-222G","EPOCH":"2026-01-02T20:00:01.999872","MEAN_MOTION":15.27546254,"ECCENTRICITY":0.0001781,"INCLINATION":42.9994,"RA_OF_ASC_NODE":148.4011,"ARG_OF_PERICENTER":288.371,"MEAN_ANOMALY":72.813,"EPHEMERIS_TYPE":0,"CLASSIFICATION_TYPE":"U","NORAD_CAT_ID":62120,"ELEMENT_SET_NO":999,"REV_AT_EPOCH":588,"BSTAR":0.0029854,"MEAN_MOTION_DOT":0.00082731,"MEAN_MOTION_DDOT":0},{"OBJECT_NAME":"STARLINK-32525","OBJECT_ID":"2024-222H","EPOCH":"2026-01-02T09:31:46.281216","MEAN_MOTION":15.27509078,"ECCENTRICITY":3.331e-5,"INCLINATION":43.0004,"RA_OF_ASC_NODE":150.2908,"ARG_OF_PERICENTER":243.8664,"MEAN_ANOMALY":116.2153,"EPHEMERIS_TYPE":0,"CLASSIFICATION_TYPE":"U","NORAD_CAT_ID":62121,"ELEMENT_SET_NO":999,"REV_AT_EPOCH":6262,"BSTAR":0.0021121471,"MEAN_MOTION_DOT":0.00058193,"MEAN_MOTION_DDOT":0},{"OBJECT_NAME":"STARLINK-32628","OBJECT_ID":"2024-222J","EPOCH":"2026-01-02T09:57:46.730016","MEAN_MOTION":15.27615778,"ECCENTRICITY":0.00031485,"INCLINATION":43,"RA_OF_ASC_NODE":150.4218,"ARG_OF_PERICENTER":288.3219,"MEAN_ANOMALY":71.729,"EPHEMERIS_TYPE":0,"CLASSIFICATION_TYPE":"U","NORAD_CAT_ID":62122,"ELEMENT_SET_NO":999,"REV_AT_EPOCH":6278,"BSTAR":0.0015347208,"MEAN_MOTION_DOT":0.00042262,"MEAN_MOTION_DDOT":0},{"OBJECT_NAME":"STARLINK-32626","OBJECT_ID":"2024-222K","EPOCH":"2026-01-02T10:25:32.809728","MEAN_MOTION":15.27620454,"ECCENTRICITY":0.00021867,"INCLINATION":42.9982,"RA_OF_ASC_NODE":150.5641,"ARG_OF_PERICENTER":295.1065,"MEAN_ANOMALY":64.9559,"EPHEMERIS_TYPE":0,"CLASSIFICATION_TYPE":"U","NORAD_CAT_ID":62123,"ELEMENT_SET_NO":999,"REV_AT_EPOCH":6261,"BSTAR":0.0016752269,"MEAN_MOTION_DOT":0.00046184,"MEAN_MOTION_DDOT":0},{"OBJECT_NAME":"STARLINK-32608","OBJECT_ID":"2024-222L","EPOCH":"2026-01-02T09:48:31.557312","MEAN_MOTION":15.27619891,"ECCENTRICITY":0.00011347,"INCLINATION":42.9956,"RA_OF_ASC_NODE":150.3768,"ARG_OF_PERICENTER":2.0568,"MEAN_ANOMALY":358.0288,"EPHEMERIS_TYPE":0,"CLASSIFICATION_TYPE":"U","NORAD_CAT_ID":62124,"ELEMENT_SET_NO":999,"REV_AT_EPOCH":6260,"BSTAR":0.0017010857,"MEAN_MOTION_DOT":0.00046904,"MEAN_MOTION_DDOT":0},{"OBJECT_NAME":"STARLINK-32488","OBJECT_ID":"2024-222M","EPOCH":"2026-01-02T20:05:15.890208","MEAN_MOTION":15.2761472,"ECCENTRICITY":0.0002023,"INCLINATION":43.0043,"RA_OF_ASC_NODE":148.4284,"ARG_OF_PERICENTER":273.4158,"MEAN_ANOMALY":86.6462,"EPHEMERIS_TYPE":0,"CLASSIFICATION_TYPE":"U","NORAD_CAT_ID":62125,"ELEMENT_SET_NO":999,"REV_AT_EPOCH":6257,"BSTAR":0.0019682,"MEAN_MOTION_DOT":0.00054356,"MEAN_MOTION_DDOT":0},{"OBJECT_NAME":"STARLINK-32490","OBJECT_ID":"2024-222N","EPOCH":"2026-01-02T09:26:18.737088","MEAN_MOTION":15.27635002,"ECCENTRICITY":0.00028006,"INCLINATION":43.0053,"RA_OF_ASC_NODE":150.2686,"ARG_OF_PERICENTER":301.8818,"MEAN_ANOMALY":58.1761,"EPHEMERIS_TYPE":0,"CLASSIFICATION_TYPE":"U","NORAD_CAT_ID":62126,"ELEMENT_SET_NO":999,"REV_AT_EPOCH":6261,"BSTAR":0.0017417924,"MEAN_MOTION_DOT":0.00048065,"MEAN_MOTION_DDOT":0},{"OBJECT_NAME":"STARLINK-32557","OBJECT_ID":"2024-222P","EPOCH":"2026-01-02T09:54:16.680384","MEAN_MOTION":15.27620964,"ECCENTRICITY":0.00033494,"INCLINATION":42.9994,"RA_OF_ASC_NODE":139.8753,"ARG_OF_PERICENTER":294.7776,"MEAN_ANOMALY":65.2727,"EPHEMERIS_TYPE":0,"CLASSIFICATION_TYPE":"U","NORAD_CAT_ID":62127,"ELEMENT_SET_NO":999,"REV_AT_EPOCH":6278,"BSTAR":0.00159414,"MEAN_MOTION_DOT":0.00043926,"MEAN_MOTION_DDOT":0}]
