STARLINK-33556          
1 62109U 24220X   26002.32319954  .00050261  00000+0  18235-2 0  9998
2 62109  42.9995 220.1476 0000784  30.7434 329.3464 15.27581392 63069
STARLINK-33551          
1 62110U 24220Y   26002.86427622  .00041945  00000+0  15251-2 0  9995
2 62110  43.0003 217.3243 0001778 274.6600  85.4048 15.27580153 63120
STARLINK-32311          
1 62114U 24222A   26002.65917991  .00038206  00000+0  13897-2 0  9991
2 62114  42.9984 134.1058 0001266 272.7008  87.3698 15.27603913 62988
STARLINK-32470          
1 62115U 24222B   26002.40484493  .00045276  00000+0  16431-2 0  9993
2 62115  42.9957 150.3417 0001274 159.6177 200.4726 15.27612761 62764
STARLINK-32502          
1 62116U 24222C   26002.42668538  .00054647  00000+0  19791-2 0  9994
2 62116  42.9935 150.5052 0000729 211.2727 148.8081 15.27606071 62674
STARLINK-32521          
1 62117U 24222D   26002.41302289  .00054229  00000+0  19635-2 0  9995
2 62117  42.9992 146.8320 0001416 273.8894  86.1796 15.27617065 62657
STARLINK-32549          
1 62118U 24222E   26002.45608856  .00044733  00000+0  16233-2 0  9999
2 62118  42.9897 149.8609 0002909 152.7093 207.3912 15.27616047 62688
STARLINK-32535          
1 62119U 24222F   26002.43487923  .00036078  00000+0  13134-2 0  9998
2 62119  43.0005 147.1139 0001527 249.4212 110.6476 15.27597611 62667
STARLINK-32548          
1 62120U 24222G   26002.83335648  .00082731  00000+0  29854-2 0  9993
2 62120  42.9994 148.4011 0001781 288.3710  72.8130 15.27546254  5888
STARLINK-32525          
1 62121U 24222H   26002.39706344  .00058193  00000+0  21121-2 0  9994
2 62121  43.0004 150.2908 0000333 243.8664 116.2153 15.27509078 62621
STARLINK-32628          
1 62122U 24222J   26002.41512419  .00042262  00000+0  15347-2 0  9999
2 62122  43.0000 150.4218 0003148 288.3219  71.7290 15.27615778 62780
STARLINK-32626          
1 62123U 24222K   26002.43440752  .00046184  00000+0  16752-2 0  9990
2 62123  42.9982 150.5641 0002186 295.1065  64.9559 15.27620454 62616
STARLINK-32608          
1 62124U 24222L   26002.40869858  .00046904  00000+0  17011-2 0  9999
2 62124  42.9956 150.3768 0001134   2.0568 358.0288 15.27619891 62609
STARLINK-32488          
1 62125U 24222M   26002.83698947  .00054356  00000+0  19682-2 0  9992
2 62125  43.0043 148.4284 0002023 273.4158  86.6462 15.27614720 62577
STARLINK-32490          
1 62126U 24222N   26002.39327242  .00048065  00000+0  17418-2 0  9996
2 62126  43.0053 150.2686 0002800 301.8818  58.1761 15.27635002 62615
STARLINK-32557          
1 62127U 24222P   26002.41269306  .00043926  00000+0  15941-2 0  9996
2 62127  42.9994 139.8753 0003349 294.7776  65.2727 15.27620964 62788
